ONEWEB-0309             
1 49095U 21075W   26155.10393185  .00000053  00000+0  10362-3 0  9993
2 49095  87.9141   8.4659 0001610  99.5634 260.5680 13.17647981231858
ONEWEB-0310             
1 49096U 21075X   26155.04657858 -.00000346  00000+0 -99768-3 0  9991
2 49096  87.8944 353.2948 0001817  85.4047 274.7289 13.12443363233466
ONEWEB-0311             
1 49097U 21075Y   26155.64225636  .00000045  00000+0  81613-4 0  9998
2 49097  87.9146   8.3588 0002310  89.1279 271.0117 13.17648500231976
ONEWEB-0312             
1 49098U 21075Z   26155.65743780  .00000032  00000+0  49077-4 0  9999
2 49098  87.9142   8.3657 0002014  93.8417 266.2945 13.17649631231956
ONEWEB-0313             
1 49099U 21075AA  26155.66234938  .00000044  00000+0  79412-4 0  9990
2 49099  87.9140   8.3708 0001933  87.1003 273.0349 13.17651527231948
ONEWEB-0314             
1 49100U 21075AB  26155.09719927  .00000027  00000+0  36467-4 0  9990
2 49100  87.9155   8.4554 0002162 105.9169 254.2201 13.17650387231844
ONEWEB-0315             
1 49101U 21075AC  26155.01947763 -.00000001  00000+0 -39067-4 0  9997
2 49101  87.8950 353.2631 0002173  86.3108 273.8269 13.12441799233440
ONEWEB-0316             
1 49102U 21075AD  26155.03218370 -.00000018  00000+0 -78704-4 0  9994
2 49102  87.9157 338.0750 0001908  90.7147 269.4204 13.18685743235471
ONEWEB-0317             
1 49103U 21075AE  26155.02286464 -.00000229  00000+0 -67177-3 0  9998
2 49103  87.8942 353.2845 0001273 105.8506 254.2763 13.12441466233464
ONEWEB-0318             
1 49104U 21075AF  26155.02880770  .00000009  00000+0 -11127-4 0  9999
2 49104  87.9166 338.0757 0002094  89.3303 270.8069 13.18686093235435
ONEWEB-0319             
1 49105U 21075AG  26155.11237728  .00000159  00000+0  37548-3 0  9998
2 49105  87.9155   8.4726 0002178  72.9269 287.2101 13.17648295231885
ONEWEB-0323             
1 49106U 21075AH  26155.08047367  .00000379  00000+0  10179-2 0  9997
2 49106  87.8952 353.2559 0002376  88.6640 271.4760 13.12442350232833
ONEWEB-0329             
1 49107U 21075AJ  26155.65236800  .00000026  00000+0  33643-4 0  9995
2 49107  87.9143   8.3624 0001941  88.1166 272.0188 13.17647796231930
ONEWEB-0330             
1 49108U 21075AK  26155.06865699  .00000035  00000+0  56078-4 0  9992
2 49108  87.9145   8.4985 0001878  95.8777 264.2568 13.17651019231899
ONEWEB-0292             
1 49186U 21083A   26154.98683390  .00000280  00000+0  73127-3 0  9998
2 49186  87.8934 322.8688 0001989  90.9200 269.2157 13.13469244229195
ONEWEB-0303             
1 49187U 21083B   26155.02544019  .00000011  00000+0 -51724-5 0  9993
2 49187  87.9161 338.0762 0001995  89.1891 270.9470 13.18685829228240
ONEWEB-0306             
1 49188U 21083C   26155.01532085  .00000022  00000+0  22258-4 0  9993
2 49188  87.9167 338.0652 0001636  93.8332 266.2987 13.18685970228281
ONEWEB-0307             
1 49189U 21083D   26154.98091308  .00000218  00000+0  56277-3 0  9991
2 49189  87.8945 322.8658 0001924  93.1417 266.9932 13.13470215229196
ONEWEB-0320             
1 49190U 21083E   26155.03554144 -.00000021  00000+0 -86482-4 0  9998
2 49190  87.9156 338.0805 0001778  90.3397 269.7939 13.18687367228245
ONEWEB-0321             
1 49191U 21083F   26155.24663763  .00000034  00000+0  52442-4 0  9991
2 49191  87.9186 277.0149 0001853 112.4341 247.6989 13.20771288235125
ONEWEB-0322             
1 49192U 21083G   26154.97667663  .00000060  00000+0  12960-3 0  9993
2 49192  87.8940 322.8673 0001420  87.8026 272.3265 13.13469527229182
ONEWEB-0324             
1 49193U 21083H   26155.00855725 -.00000622  00000+0 -16118-2 0  9991
2 49193  87.9161 338.0708 0001927  86.5036 273.6316 13.18686651228269
ONEWEB-0325             
1 49194U 21083J   26155.01193903  .00000028  00000+0  37717-4 0  9994
2 49194  87.9157 338.0808 0001838  88.0455 272.0888 13.18686486228273
ONEWEB-0326             
1 49195U 21083K   26155.02724695 -.00000436  00000+0 -11387-2 0  9992
2 49195  87.9167 338.0748 0002096  85.4725 274.6647 13.18686002228260
ONEWEB-0327             
1 49196U 21083L   26155.02697435 -.00000002  00000+0 -38402-4 0  9992
2 49196  87.9157 338.0800 0002142  82.4004 277.7371 13.18686611228284
ONEWEB-0328             
1 49197U 21083M   26154.96651571 -.00000193  00000+0 -56403-3 0  9997
2 49197  87.8952 322.8411 0001834  97.0089 263.1249 13.13469468229163
ONEWEB-0331             
1 49198U 21083N   26155.02037825  .00000003  00000+0 -25911-4 0  9996
2 49198  87.9167 338.0697 0002173  89.3583 270.7798 13.18686629228277
ONEWEB-0333             
1 49199U 21083P   26154.96143357 -.00000239  00000+0 -69050-3 0  9990
2 49199  87.8943 322.8696 0001806  90.9651 269.1685 13.13469462229171
ONEWEB-0334             
1 49200U 21083Q   26155.71885036 -.00000088  00000+0 -24924-3 0  9997
2 49200  87.9193 276.9313 0001093 118.6906 241.4337 13.20772172235140
ONEWEB-0335             
1 49201U 21083R   26154.49929801 -.00000286  00000+0 -81763-3 0  9995
2 49201  87.8944 322.9586 0001994  93.0455 267.0902 13.13469989229127
