OBJECT_NAME,OBJECT_ID,EPOCH,MEAN_MOTION,ECCENTRICITY,INCLINATION,RA_OF_ASC_NODE,ARG_OF_PERICENTER,MEAN_ANOMALY,EPHEMERIS_TYPE,CLASSIFICATION_TYPE,NORAD_CAT_ID,ELEMENT_SET_NO,REV_AT_EPOCH,BSTAR,MEAN_MOTION_DOT,MEAN_MOTION_DDOT
ONEWEB-0309,2021-075W,2026-06-04T02:29:39.711840,13.17647981,.000161,87.9141,8.4659,99.5634,260.5680,0,U,49095,999,23185,.10362E-3,.53E-6,0
ONEWEB-0310,2021-075X,2026-06-04T01:07:04.389312,13.12443363,.00018174,87.8944,353.2948,85.4047,274.7289,0,U,49096,999,23346,-.99768406E-3,-.346E-5,0
ONEWEB-0311,2021-075Y,2026-06-04T15:24:50.949504,13.17648500,.000231,87.9146,8.3588,89.1279,271.0117,0,U,49097,999,23197,.81613325E-4,.45E-6,0
ONEWEB-0312,2021-075Z,2026-06-04T15:46:42.625920,13.17649631,.00020146,87.9142,8.3657,93.8417,266.2945,0,U,49098,999,23195,.49076543E-4,.32E-6,0
ONEWEB-0313,2021-075AA,2026-06-04T15:53:46.986432,13.17651527,.00019336,87.9140,8.3708,87.1003,273.0349,0,U,49099,999,23194,.79411705E-4,.44E-6,0
ONEWEB-0314,2021-075AB,2026-06-04T02:19:58.016928,13.17650387,.0002162,87.9155,8.4554,105.9169,254.2201,0,U,49100,999,23184,.36467E-4,.27E-6,0
ONEWEB-0315,2021-075AC,2026-06-04T00:28:02.867232,13.12441799,.00021734,87.8950,353.2631,86.3108,273.8269,0,U,49101,999,23344,-.39067364E-4,-.1E-7,0
ONEWEB-0316,2021-075AD,2026-06-04T00:46:20.671680,13.18685743,.00019081,87.9157,338.0750,90.7147,269.4204,0,U,49102,999,23547,-.78704167E-4,-.18E-6,0
ONEWEB-0317,2021-075AE,2026-06-04T00:32:55.504896,13.12441466,.00012737,87.8942,353.2845,105.8506,254.2763,0,U,49103,999,23346,-.67177194E-3,-.229E-5,0
ONEWEB-0318,2021-075AF,2026-06-04T00:41:28.985280,13.18686093,.00020946,87.9166,338.0757,89.3303,270.8069,0,U,49104,999,23543,-.11127399E-4,.9E-7,0
ONEWEB-0319,2021-075AG,2026-06-04T02:41:49.396992,13.17648295,.00021787,87.9155,8.4726,72.9269,287.2101,0,U,49105,999,23188,.37547704E-3,.159E-5,0
ONEWEB-0323,2021-075AH,2026-06-04T01:55:52.925088,13.12442350,.0002376,87.8952,353.2559,88.6640,271.4760,0,U,49106,999,23283,.10179E-2,.379E-5,0
ONEWEB-0329,2021-075AJ,2026-06-04T15:39:24.595200,13.17647796,.0001941,87.9143,8.3624,88.1166,272.0188,0,U,49107,999,23193,.33643304E-4,.26E-6,0
ONEWEB-0330,2021-075AK,2026-06-04T01:38:51.963936,13.17651019,.00018781,87.9145,8.4985,95.8777,264.2568,0,U,49108,999,23189,.56078078E-4,.35E-6,0
ONEWEB-0292,2021-083A,2026-06-03T23:41:02.448960,13.13469244,.00019892,87.8934,322.8688,90.9200,269.2157,0,U,49186,999,22919,.73126972E-3,.28E-5,0
ONEWEB-0303,2021-083B,2026-06-04T00:36:38.032416,13.18685829,.0001995,87.9161,338.0762,89.1891,270.9470,0,U,49187,999,22824,-.5172424E-5,.11E-6,0
ONEWEB-0306,2021-083C,2026-06-04T00:22:03.721440,13.18685970,.00016369,87.9167,338.0652,93.8332,266.2987,0,U,49188,999,22828,.22257613E-4,.22E-6,0
ONEWEB-0307,2021-083D,2026-06-03T23:32:30.890112,13.13470215,.00019245,87.8945,322.8658,93.1417,266.9932,0,U,49189,999,22919,.56277061E-3,.218E-5,0
ONEWEB-0320,2021-083E,2026-06-04T00:51:10.780416,13.18687367,.00017782,87.9156,338.0805,90.3397,269.7939,0,U,49190,999,22824,-.86482473E-4,-.21E-6,0
ONEWEB-0321,2021-083F,2026-06-04T05:55:09.491232,13.20771288,.00018531,87.9186,277.0149,112.4341,247.6989,0,U,49191,999,23512,.52442084E-4,.34E-6,0
ONEWEB-0322,2021-083G,2026-06-03T23:26:24.860832,13.13469527,.00014209,87.8940,322.8673,87.8026,272.3265,0,U,49192,999,22918,.12960303E-3,.6E-6,0
ONEWEB-0324,2021-083H,2026-06-04T00:12:19.346400,13.18686651,.00019273,87.9161,338.0708,86.5036,273.6316,0,U,49193,999,22826,-.16117853E-2,-.622E-5,0
ONEWEB-0325,2021-083J,2026-06-04T00:17:11.532192,13.18686486,.00018382,87.9157,338.0808,88.0455,272.0888,0,U,49194,999,22827,.3771664E-4,.28E-6,0
ONEWEB-0326,2021-083K,2026-06-04T00:39:14.136480,13.18686002,.00020964,87.9167,338.0748,85.4725,274.6647,0,U,49195,999,22826,-.11386811E-2,-.436E-5,0
ONEWEB-0327,2021-083L,2026-06-04T00:38:50.583840,13.18686611,.00021422,87.9157,338.0800,82.4004,277.7371,0,U,49196,999,22828,-.38401666E-4,-.2E-7,0
ONEWEB-0328,2021-083M,2026-06-03T23:11:46.957344,13.13469468,.00018341,87.8952,322.8411,97.0089,263.1249,0,U,49197,999,22916,-.56403441E-3,-.193E-5,0
ONEWEB-0331,2021-083N,2026-06-04T00:29:20.680800,13.18686629,.00021738,87.9167,338.0697,89.3583,270.7798,0,U,49198,999,22827,-.25910875E-4,.3E-7,0
ONEWEB-0333,2021-083P,2026-06-03T23:04:27.860448,13.13469462,.00018064,87.8943,322.8696,90.9651,269.1685,0,U,49199,999,22917,-.6905038E-3,-.239E-5,0
ONEWEB-0334,2021-083Q,2026-06-04T17:15:08.671104,13.20772172,.0001093,87.9193,276.9313,118.6906,241.4337,0,U,49200,999,23514,-.24924038E-3,-.88E-6,0
ONEWEB-0335,2021-083R,2026-06-03T11:58:59.348064,13.13469989,.0001994,87.8944,322.9586,93.0455,267.0902,0,U,49201,999,22912,-.81763E-3,-.286E-5,0
